CAPELLA-5-WHITNEY       
1 48913U 21059AL  22278.09751886  .00064078  00000+0  22642-2 0  9999
2 48913  97.5535  50.1046 0006873  66.8707 293.3256 15.28935508 70761
ICEYE-X12               
1 48914U 21059AM  22278.29322503  .00008418  00000+0  51322-3 0  9996
2 48914  97.5687  45.3681 0001629  51.2069  35.9204 15.10604820 70432
YAM-3                   
1 48915U 21059AN  22277.95474037  .00006396  00000+0  34892-3 0  9995
2 48915  97.5668  46.6402 0012778  77.1856 283.0803 15.14643219 70503
ICEYE-X13               
1 48916U 21059AP  22278.15254172  .00008342  00000+0  50164-3 0  9998
2 48916  97.5694  45.4438 0002378  72.8187  28.7767 15.11105029 70426
ICEYE-X15               
1 48917U 21059AQ  22278.12932198  .00009731  00000+0  49422-3 0  9995
2 48917  97.5687  47.7172 0012801  76.9693  28.7349 15.17028831 70571
ICEYE-X11               
1 48918U 21059AR  22278.17149520  .00009553  00000+0  49006-3 0  9990
2 48918  97.5673  47.6062 0012804  75.0703   3.2521 15.16682974 70572
NUSAT-22 (SOFYA)        
1 48919U 21059AS  22278.14572980  .00018725  00000+0  57686-3 0  9992
2 48919  97.3684  49.7286 0013442   9.7310  94.0268 15.33580644 71365
NUSAT-21 (ELISA)        
1 48920U 21059AT  22278.31610550  .00022276  00000+0  61248-3 0  9994
2 48920  97.3643  49.6162 0012521  19.1076  36.5421 15.37134437 71412
NUSAT-20 (GRACE)        
1 48921U 21059AU  22278.29442036  .00021049  00000+0  60673-3 0  9992
2 48921  97.3765  50.0385 0015666  38.1934  22.9818 15.35626119 71395
D2/ATLACOM-1            
1 48922U 21059AV  22278.29158736  .00012046  00000+0  60688-3 0  9997
2 48922  97.5604  47.4830 0013076  70.6838 350.4124 15.17252412 70605
LEMUR-2-ANNABANANA      
1 48923U 21059AW  22278.10434935  .00027260  00000+0  12550-2 0  9994
2 48923  97.5591  48.0324 0011434  72.6899 287.5585 15.20221177 70622
FARADAY_PHOENIX         
1 48924U 21059AX  22278.15019769  .00004719  00000+0  24985-3 0  9994
2 48924  97.5708  47.6308 0019198  78.3968  94.6284 15.15758196 70561
LEMUR-2-JOHN-TREIRES    
1 48925U 21059AY  22277.35174940  .00029830  00000+0  13393-2 0  9990
2 48925  97.5667  47.9446 0013840  77.3551 282.9230 15.21037011 70530
KSF1-B                  
1 48926U 21059AZ  22278.11141391  .00023988  00000+0  10794-2 0  9990
2 48926  97.5686  48.7942 0015468  74.5140  28.7980 15.20985895 70644
LEMUR-2-AC-CUBED        
1 48927U 21059BA  22277.31751904  .00025407  00000+0  11695-2 0  9998
2 48927  97.5643  47.6988 0016221  80.1010 280.2054 15.20182524 70525
PAINANI-2               
1 48928U 21059BB  22277.60922130  .00013544  00000+0  67773-3 0  9990
2 48928  97.5711  47.6972 0015719  81.0316 279.2695 15.17426649 70529
LEMUR-2-MERIMA          
1 48929U 21059BC  22277.93889389  .00024350  00000+0  10957-2 0  9993
2 48929  97.5599  48.4024 0015795  78.2004 282.1002 15.20977964 70639
KSF1-A                  
1 48930U 21059BD  22278.16774709  .00021328  00000+0  95462-3 0  9997
2 48930  97.5615  48.5847 0014217  76.9328   2.3238 15.21209701 70660
HAWK-3B                 
1 48931U 21059BE  22278.09521879  .00007217  00000+0  37468-3 0  9991
2 48931  97.5540  46.9950 0016859  87.7724 272.5439 15.16300203 70587
SPACEBEE-92             
1 48932U 21059BF  22277.31009731  .00074733  00000+0  25081-2 0  9998
2 48932  97.5541  49.9390 0012085  77.0144 283.2445 15.30516465 70687
SPACEBEE-89             
1 48933U 21059BG  22277.32582438  .00083553  00000+0  26828-2 0  9990
2 48933  97.5536  50.2023 0011440  74.8946 285.3560 15.31910380 70708
SPACEBEE-96             
1 48934U 21059BH  22277.33034917  .00067109  00000+0  23198-2 0  9992
2 48934  97.5549  49.7741 0012410  77.2573 283.0053 15.29588098 70676
SPACEBEE-88             
1 48935U 21059BJ  22277.62912213  .00091057  00000+0  28851-2 0  9999
2 48935  97.5522  50.5382 0011494  73.8845 286.3661 15.32302627 70750
SPACEBEE-99             
1 48936U 21059BK  22277.33985311  .00064252  00000+0  22832-2 0  9997
2 48936  97.5554  49.6293 0012763  78.5573 281.7099 15.28695795 70666
SPACEBEE-94             
1 48937U 21059BL  22277.34585676  .00072949  00000+0  24816-2 0  9995
2 48937  97.5536  49.8756 0012285  77.2750 282.9863 15.30083140 70687
SHANNON                 
1 48938U 21059BM  22277.32852304  .00012235  00000+0  61753-3 0  9993
2 48938  97.5690  47.3072 0017224  86.8202 273.5001 15.17128011 70489
SPACEBEE-93             
1 48939U 21059BN  22277.63157148  .00087885  00000+0  28477-2 0  9990
2 48939  97.5530  50.4097 0011554  73.9874 286.2639 15.31596574 70743
SPACEBEE-91             
1 48940U 21059BP  22278.27159824  .00084916  00000+0  27465-2 0  9994
2 48940  97.5534  51.0989 0011476  70.7974 289.4508 15.31669223 70848
SHERPA-LTE1             
1 48941U 21059BQ  22278.10094414  .00016371  00000+0  45197-3 0  9993
2 48941  97.5643  52.7633 0004878  87.5336 272.6467 15.37143545 70916
KSF1-C                  
1 48942U 21059BR  22278.23759041  .00016331  00000+0  75324-3 0  9993
2 48942  97.5708  49.2464 0016146  82.1703 327.5191 15.20208907 70675
QMR-KWT                 
1 48943U 21059BS  22277.30628786  .00015819  00000+0  79319-3 0  9990
2 48943  97.5665  46.9001 0009457  85.6046 274.6267 15.17389434 70468
AYAN-21                 
1 48944U 21059BT  22277.61830401  .00015251  00000+0  74316-3 0  9996
2 48944  97.5671  47.9742 0015980  76.7746 283.5269 15.18322519 70558
SPACEBEE-95             
1 48945U 21059BU  22278.10288222  .00076832  00000+0  25765-2 0  9995
2 48945  97.5544  50.7442 0012006  73.0909 287.1647 15.30533157 70808
SPACEBEE-97             
1 48946U 21059BV  22277.36141794  .00064031  00000+0  22430-2 0  9999
2 48946  97.5551  49.7381 0012753  78.1465 282.1204 15.29165574 70670
SPACEBEE-90             
1 48947U 21059BW  22277.66896088  .00089092  00000+0  28721-2 0  9999
2 48947  97.5534  50.5151 0011493  73.4590 286.7913 15.31755953 70759
HAWK-3C                 
1 48948U 21059BX  22277.36905941  .00007288  00000+0  37831-3 0  9996
2 48948  97.5796  47.6944 0017914  92.5391 267.7892 15.16289299 70474
SPACEBEE-98             
1 48949U 21059BY  22278.01098188  .00065459  00000+0  22794-2 0  9991
2 48949  97.5566  50.4488 0012327  74.0276 286.2321 15.29358218 70773
KSF1-D                  
1 48950U 21059BZ  22278.14931740  .00033277  00000+0  14697-2 0  9993
2 48950  97.5676  48.9362 0015510  81.0028  91.6954 15.21554187 70674
DEMO8 (TENZING)         
1 48951U 21059CA  22277.31420457  .00007535  00000+0  39813-3 0  9996
2 48951  97.5715  46.9597 0017673  88.8667 271.4590 15.15653747 70458
ASTROCAST-0204          
1 48952U 21059CB  22278.10395703  .00009759  00000+0  49773-3 0  9996
2 48952  97.5706  48.1855 0017100  78.9155 281.4000 15.16825575 70602
ARTHUR-1                
1 48953U 21059CC  22278.16484876  .00006197  00000+0  31183-3 0  9992
2 48953  97.5669  48.2613 0015335  82.9924 359.7328 15.17480747 70624
ASTROCAST-0201          
1 48954U 21059CD  22276.92512607  .00007703  00000+0  40465-3 0  9996
2 48954  97.5652  46.5747 0014050  89.9733 270.3110 15.15899610 70408
ASTROCAST-0203          
1 48955U 21059CE  22278.26692461  .00008788  00000+0  46034-3 0  9995
2 48955  97.5626  47.6851 0016879  83.7444 276.5710 15.15915904 70601
DEMO9 (AURORA)          
1 48956U 21059CF  22277.32227853  .00009731  00000+0  50057-3 0  9990
2 48956  97.5698  47.1823 0017917  84.8092 275.5185 15.16510538 70475
HAWK-3A                 
1 48957U 21059CG  22277.63286009  .00007565  00000+0  39248-3 0  9995
2 48957  97.5667  47.2506 0017911  86.6384 273.6897 15.16292156 70516
SHERPA-FX2 & TAGSAT-2   
1 48958U 21059CH  22278.09985949  .00007239  00000+0  37897-3 0  9992
2 48958  97.5704  47.8688 0017927  82.8617 277.4653 15.15988152 70586
LEMUR-2-CARLSANTAMARI   
1 48959U 21059CJ  22277.61755896  .00038729  00000+0  16221-2 0  9991
2 48959  97.5632  48.7774 0014902  82.6593 277.6336 15.23331772 70628
ASTROCAST-0205          
1 48960U 21059CK  22277.95856248  .00007495  00000+0  39330-3 0  9996
2 48960  97.5645  47.6078 0015918  75.5970 284.7027 15.15924474 70564
ASTROCAST-0202          
1 48961U 21059CL  22278.08769953  .00008582  00000+0  43518-3 0  9999
2 48961  97.5664  48.2826 0015275  79.8033 280.4922 15.17093409 70617
GHALIB                  
1 48962U 21059CM  22278.12422739  .00015883  00000+0  78845-3 0  9996
2 48962  97.5648  47.7756 0009392  82.8522 277.3779 15.17739453 70594
NAPA-2                  
1 48963U 21059CN  22278.12159932  .00004517  00000+0  25239-3 0  9990
2 48963  97.5644  46.2542 0014762  77.5595  27.8991 15.13921308 70497
SPARTAN                 
1 48964U 21059CP  22278.07890850  .00006982  00000+0  37170-3 0  9991
2 48964  97.5621  46.9499 0009150  80.6738 279.5529 15.15508931 70555
W-CUBE                  
1 48965U 21059CQ  22277.34874453  .00008994  00000+0  48889-3 0  9996
2 48965  97.5684  45.8770 0013918  76.6785 283.5998 15.14636341 70381
NEPT-1                  
1 48966U 21059CR  22277.30041870  .00016875  00000+0  84735-3 0  9999
2 48966  97.5573  46.2541 0009240  77.7361 282.4907 15.17326591 70457
ONEWEB-0249             
1 48967U 21060A   22278.13009236  .00012390  00000+0  32368-1 0  9995
2 48967  87.9069 137.8138 0001644  79.5541 280.5775 13.16521940 63120
ONEWEB-0250             
1 48968U 21060B   22278.13433931  .00007395  00000+0  19307-1 0  9996
2 48968  87.9078 137.8173 0001273  75.0745 285.0527 13.16548256 63107
ONEWEB-0252             
1 48970U 21060D   22278.16179674  .00005260  00000+0  13723-1 0  9998
2 48970  87.9079 137.7921 0001586  71.4364 288.6939 13.16565446 63178
ONEWEB-0253             
1 48971U 21060E   22278.07532651 -.00012417  00000+0 -32523-1 0  9990
2 48971  87.9040 137.8260 0001071  46.4528 313.6691 13.16670033 63080
ONEWEB-0254             
1 48972U 21060F   22277.85568009  .00007367  00000+0  19236-1 0  9994
2 48972  87.9088 137.8396 0001330  65.3077 294.8193 13.16547214 63058
